IRNSS-1A                
1 39199U 13034A   23115.96021549  .00000090  00000+0  00000+0 0  9997
2 39199  33.1318  80.6500 0017620 186.6604 347.1155  1.00277395 35859
NAVSTAR 69 (USA 248)    
1 39533U 14008A   23116.45166009 -.00000018  00000+0  00000+0 0  9998
2 39533  53.6011 196.0839 0065281 212.5474 147.1015  2.00571087 66667
COSMOS 2492 [GLONASS-M] 
1 39620U 14012A   23116.94000539 -.00000077  00000+0  00000+0 0  9994
2 39620  65.7981 352.6395 0013797 331.1179 344.8582  2.13103169 70785
IRNSS-1B                
1 39635U 14017A   23116.72078616  .00000093  00000+0  00000+0 0  9999
2 39635  28.9620 259.8649 0021485 180.2319  88.8088  1.00272479 33280
LUCH-5V                 
1 39727U 14023A   23116.84441435 -.00000270  00000+0  00000+0 0  9992
2 39727   2.2576  77.4760 0001518 341.1287 194.6097  1.00277474 32850
NAVSTAR 70 (USA 251)    
1 39741U 14026A   23116.72946944 -.00000109  00000+0  00000+0 0  9994
2 39741  56.6704  16.0533 0030033 313.3372  46.4430  2.00566733 65524
COSMOS 2500 [GLONASS-M] 
1 40001U 14032A   23116.48035544 -.00000079  00000+0  00000+0 0  9996
2 40001  65.7380 352.4930 0004137 198.6912 342.7421  2.13105909 68998
NAVSTAR 71 (USA 256)    
1 40105U 14045A   23116.32366148  .00000034  00000+0  00000+0 0  9995
2 40105  54.7729 134.3057 0021352 114.6816 245.5806  2.00568746 63051
GSAT0201 (GALILEO 5)    
1 40128U 14050A   23116.36699178 -.00000075  00000+0  00000+0 0  9998
2 40128  50.0499 319.7989 1612400 135.3562 238.8270  1.85519299 57022
GSAT0202 (GALILEO 6)    
1 40129U 14050B   23113.93187004 -.00000088  00000+0  00000+0 0  9993
2 40129  50.0724 318.9648 1609932 136.0769 237.9148  1.85519854 59146
IRNSS-1C                
1 40269U 14061A   23117.06229894 -.00000161  00000+0  00000+0 0  9994
2 40269   3.6587 116.7961 0018816   2.7308 200.7367  1.00273612 31323
NAVSTAR 72 (USA 258)    
1 40294U 14068A   23116.19746214 -.00000019  00000+0  00000+0 0  9994
2 40294  56.0691  75.6088 0045211  56.3198 304.0869  2.00563081 62189
COSMOS 2501 [GLONASS-K] 
1 40315U 14075A   23116.51570824 -.00000009  00000+0  00000+0 0  9993
2 40315  63.6497 230.2223 0018295 205.6785 172.0993  2.13101460 65406
NAVSTAR 73 (USA 260)    
1 40534U 15013A   23116.82802992 -.00000018  00000+0  00000+0 0  9997
2 40534  53.5260 251.7016 0077980  25.1627 335.1938  2.00562633 58816
GSAT0203 (GALILEO 7)    
1 40544U 15017A   23116.26802600 -.00000106  00000+0  00000+0 0  9994
2 40544  56.8802  12.8371 0002393 298.2939  61.7127  1.70475744 49634
GSAT0204 (GALILEO 8)    
1 40545U 15017B   23115.93478565 -.00000106  00000+0  00000+0 0  9997
2 40545  56.8858  12.8598 0002162 283.3622  76.6443  1.70475721 12670
