[{"OBJECT_NAME":"IRNSS-1A (I01)","OBJECT_ID":"2013-034A","EPOCH":"2023-04-25T23:02:42.618336","MEAN_MOTION":1.00277395,"ECCENTRICITY":0.001762,"INCLINATION":33.1318,"RA_OF_ASC_NODE":80.65,"ARG_OF_PERICENTER":186.6604,"MEAN_ANOMALY":347.1155,"EPHEMERIS_TYPE":0,"CLASSIFICATION_TYPE":"U","NORAD_CAT_ID":39199,"ELEMENT_SET_NO":999,"REV_AT_EPOCH":3585,"BSTAR":0,"MEAN_MOTION_DOT":9.0e-7,"MEAN_MOTION_DDOT":0},{"OBJECT_NAME":"GPS BIIF-5  (PRN 30)","OBJECT_ID":"2014-008A","EPOCH":"2023-04-26T10:50:23.431776","MEAN_MOTION":2.00571087,"ECCENTRICITY":0.0065281,"INCLINATION":53.6011,"RA_OF_ASC_NODE":196.0839,"ARG_OF_PERICENTER":212.5474,"MEAN_ANOMALY":147.1015,"EPHEMERIS_TYPE":0,"CLASSIFICATION_TYPE":"U","NORAD_CAT_ID":39533,"ELEMENT_SET_NO":999,"REV_AT_EPOCH":6666,"BSTAR":0,"MEAN_MOTION_DOT":-1.8e-7,"MEAN_MOTION_DDOT":0},{"OBJECT_NAME":"COSMOS 2492 (754)","OBJECT_ID":"2014-012A","EPOCH":"2023-04-26T22:33:36.465696","MEAN_MOTION":2.13103169,"ECCENTRICITY":0.0013797,"INCLINATION":65.7981,"RA_OF_ASC_NODE":352.6395,"ARG_OF_PERICENTER":331.1179,"MEAN_ANOMALY":344.8582,"EPHEMERIS_TYPE":0,"CLASSIFICATION_TYPE":"U","NORAD_CAT_ID":39620,"ELEMENT_SET_NO":999,"REV_AT_EPOCH":7078,"BSTAR":0,"MEAN_MOTION_DOT":-7.7e-7,"MEAN_MOTION_DDOT":0},{"OBJECT_NAME":"IRNSS-1B (I02)","OBJECT_ID":"2014-017A","EPOCH":"2023-04-26T17:17:55.924224","MEAN_MOTION":1.00272479,"ECCENTRICITY":0.0021485,"INCLINATION":28.962,"RA_OF_ASC_NODE":259.8649,"ARG_OF_PERICENTER":180.2319,"MEAN_ANOMALY":88.8088,"EPHEMERIS_TYPE":0,"CLASSIFICATION_TYPE":"U","NORAD_CAT_ID":39635,"ELEMENT_SET_NO":999,"REV_AT_EPOCH":3328,"BSTAR":0,"MEAN_MOTION_DOT":9.3e-7,"MEAN_MOTION_DDOT":0},{"OBJECT_NAME":"LUCH 5V (SDCM\/PRN 141)","OBJECT_ID":"2014-023A","EPOCH":"2023-04-26T20:15:57.399840","MEAN_MOTION":1.00277474,"ECCENTRICITY":0.0001518,"INCLINATION":2.2576,"RA_OF_ASC_NODE":77.476,"ARG_OF_PERICENTER":341.1287,"MEAN_ANOMALY":194.6097,"EPHEMERIS_TYPE":0,"CLASSIFICATION_TYPE":"U","NORAD_CAT_ID":39727,"ELEMENT_SET_NO":999,"REV_AT_EPOCH":3285,"BSTAR":0,"MEAN_MOTION_DOT":-2.7e-6,"MEAN_MOTION_DDOT":0},{"OBJECT_NAME":"GPS BIIF-6  (PRN 06)","OBJECT_ID":"2014-026A","EPOCH":"2023-04-26T17:30:26.159616","MEAN_MOTION":2.00566733,"ECCENTRICITY":0.0030033,"INCLINATION":56.6704,"RA_OF_ASC_NODE":16.0533,"ARG_OF_PERICENTER":313.3372,"MEAN_ANOMALY":46.443,"EPHEMERIS_TYPE":0,"CLASSIFICATION_TYPE":"U","NORAD_CAT_ID":39741,"ELEMENT_SET_NO":999,"REV_AT_EPOCH":6552,"BSTAR":0,"MEAN_MOTION_DOT":-1.09e-6,"MEAN_MOTION_DDOT":0},{"OBJECT_NAME":"COSMOS 2500 (755)","OBJECT_ID":"2014-032A","EPOCH":"2023-04-26T11:31:42.710016","MEAN_MOTION":2.13105909,"ECCENTRICITY":0.0004137,"INCLINATION":65.738,"RA_OF_ASC_NODE":352.493,"ARG_OF_PERICENTER":198.6912,"MEAN_ANOMALY":342.7421,"EPHEMERIS_TYPE":0,"CLASSIFICATION_TYPE":"U","NORAD_CAT_ID":40001,"ELEMENT_SET_NO":999,"REV_AT_EPOCH":6899,"BSTAR":0,"MEAN_MOTION_DOT":-7.9e-7,"MEAN_MOTION_DDOT":0},{"OBJECT_NAME":"GPS BIIF-7  (PRN 09)","OBJECT_ID":"2014-045A","EPOCH":"2023-04-26T07:46:04.351872","MEAN_MOTION":2.00568746,"ECCENTRICITY":0.0021352,"INCLINATION":54.7729,"RA_OF_ASC_NODE":134.3057,"ARG_OF_PERICENTER":114.6816,"MEAN_ANOMALY":245.5806,"EPHEMERIS_TYPE":0,"CLASSIFICATION_TYPE":"U","NORAD_CAT_ID":40105,"ELEMENT_SET_NO":999,"REV_AT_EPOCH":6305,"BSTAR":0,"MEAN_MOTION_DOT":3.4e-7,"MEAN_MOTION_DDOT":0},{"OBJECT_NAME":"GSAT0201 (PRN E18)","OBJECT_ID":"2014-050A","EPOCH":"2023-04-26T08:48:28.089792","MEAN_MOTION":1.85519299,"ECCENTRICITY":0.16124,"INCLINATION":50.0499,"RA_OF_ASC_NODE":319.7989,"ARG_OF_PERICENTER":135.3562,"MEAN_ANOMALY":238.827,"EPHEMERIS_TYPE":0,"CLASSIFICATION_TYPE":"U","NORAD_CAT_ID":40128,"ELEMENT_SET_NO":999,"REV_AT_EPOCH":5702,"BSTAR":0,"MEAN_MOTION_DOT":-7.5e-7,"MEAN_MOTION_DDOT":0},{"OBJECT_NAME":"GSAT0202 (PRN E14)","OBJECT_ID":"2014-050B","EPOCH":"2023-04-23T22:21:53.571456","MEAN_MOTION":1.85519854,"ECCENTRICITY":0.1609932,"INCLINATION":50.0724,"RA_OF_ASC_NODE":318.9648,"ARG_OF_PERICENTER":136.0769,"MEAN_ANOMALY":237.9148,"EPHEMERIS_TYPE":0,"CLASSIFICATION_TYPE":"U","NORAD_CAT_ID":40129,"ELEMENT_SET_NO":999,"REV_AT_EPOCH":5914,"BSTAR":0,"MEAN_MOTION_DOT":-8.8e-7,"MEAN_MOTION_DDOT":0},{"OBJECT_NAME":"IRNSS-1C (I03)","OBJECT_ID":"2014-061A","EPOCH":"2023-04-27T01:29:42.628416","MEAN_MOTION":1.00273612,"ECCENTRICITY":0.0018816,"INCLINATION":3.6587,"RA_OF_ASC_NODE":116.7961,"ARG_OF_PERICENTER":2.7308,"MEAN_ANOMALY":200.7367,"EPHEMERIS_TYPE":0,"CLASSIFICATION_TYPE":"U","NORAD_CAT_ID":40269,"ELEMENT_SET_NO":999,"REV_AT_EPOCH":3132,"BSTAR":0,"MEAN_MOTION_DOT":-1.61e-6,"MEAN_MOTION_DDOT":0},{"OBJECT_NAME":"GPS BIIF-8  (PRN 03)","OBJECT_ID":"2014-068A","EPOCH":"2023-04-26T04:44:20.728896","MEAN_MOTION":2.00563081,"ECCENTRICITY":0.0045211,"INCLINATION":56.0691,"RA_OF_ASC_NODE":75.6088,"ARG_OF_PERICENTER":56.3198,"MEAN_ANOMALY":304.0869,"EPHEMERIS_TYPE":0,"CLASSIFICATION_TYPE":"U","NORAD_CAT_ID":40294,"ELEMENT_SET_NO":999,"REV_AT_EPOCH":6218,"BSTAR":0,"MEAN_MOTION_DOT":-1.9e-7,"MEAN_MOTION_DDOT":0},{"OBJECT_NAME":"COSMOS 2501 (702K)","OBJECT_ID":"2014-075A","EPOCH":"2023-04-26T12:22:37.191936","MEAN_MOTION":2.1310146,"ECCENTRICITY":0.0018295,"INCLINATION":63.6497,"RA_OF_ASC_NODE":230.2223,"ARG_OF_PERICENTER":205.6785,"MEAN_ANOMALY":172.0993,"EPHEMERIS_TYPE":0,"CLASSIFICATION_TYPE":"U","NORAD_CAT_ID":40315,"ELEMENT_SET_NO":999,"REV_AT_EPOCH":6540,"BSTAR":0,"MEAN_MOTION_DOT":-9.0e-8,"MEAN_MOTION_DDOT":0},{"OBJECT_NAME":"GPS BIIF-9  (PRN 26)","OBJECT_ID":"2015-013A","EPOCH":"2023-04-26T19:52:21.785088","MEAN_MOTION":2.00562633,"ECCENTRICITY":0.007798,"INCLINATION":53.526,"RA_OF_ASC_NODE":251.7016,"ARG_OF_PERICENTER":25.1627,"MEAN_ANOMALY":335.1938,"EPHEMERIS_TYPE":0,"CLASSIFICATION_TYPE":"U","NORAD_CAT_ID":40534,"ELEMENT_SET_NO":999,"REV_AT_EPOCH":5881,"BSTAR":0,"MEAN_MOTION_DOT":-1.8e-7,"MEAN_MOTION_DDOT":0},{"OBJECT_NAME":"GSAT0203 (PRN E26)","OBJECT_ID":"2015-017A","EPOCH":"2023-04-26T06:25:57.446400","MEAN_MOTION":1.70475744,"ECCENTRICITY":0.0002393,"INCLINATION":56.8802,"RA_OF_ASC_NODE":12.8371,"ARG_OF_PERICENTER":298.2939,"MEAN_ANOMALY":61.7127,"EPHEMERIS_TYPE":0,"CLASSIFICATION_TYPE":"U","NORAD_CAT_ID":40544,"ELEMENT_SET_NO":999,"REV_AT_EPOCH":4963,"BSTAR":0,"MEAN_MOTION_DOT":-1.06e-6,"MEAN_MOTION_DDOT":0},{"OBJECT_NAME":"GSAT0204 (PRN E22)","OBJECT_ID":"2015-017B","EPOCH":"2023-04-25T22:26:05.480160","MEAN_MOTION":1.70475721,"ECCENTRICITY":0.0002162,"INCLINATION":56.8858,"RA_OF_ASC_NODE":12.8598,"ARG_OF_PERICENTER":283.3622,"MEAN_ANOMALY":76.6443,"EPHEMERIS_TYPE":0,"CLASSIFICATION_TYPE":"U","NORAD_CAT_ID":40545,"ELEMENT_SET_NO":999,"REV_AT_EPOCH":1267,"BSTAR":0,"MEAN_MOTION_DOT":-1.06e-6,"MEAN_MOTION_DDOT":0}]
